FENGYUN 1C DEB          
1 31814U 99025CHC 17345.84921692  .00000217  00000-0  27251-3 0  9993
2 31814  99.8290 346.8805 0234533  97.1495 265.6374 13.63994656219293
